{
  "type": "FeatureCollection",
  "features": [
    {
      "type": "Feature",
      "properties": {
        "norad_id": 44333,
        "name": "AT&T T-16",
        "group": "intelsat",
        "lat": -0.02898420113409805,
        "lon": -39.043414423367594,
        "alt_km": 35789.12081107816,
        "timestamp": "2025-12-11T22:43:46.939919+00:00",
        "meta_object_name": "AT&T T-16",
        "meta_object_id": "2019-034A",
        "meta_epoch": "2025-12-10T23:20:04.800192",
        "meta_mean_motion": 1.00268632,
        "meta_eccentricity": 5.108e-05,
        "meta_inclination": 0.0297,
        "meta_ra_of_asc_node": 74.5044,
        "meta_arg_of_pericenter": 72.1437,
        "meta_mean_anomaly": 182.4372,
        "meta_ephemeris_type": 0,
        "meta_classification_type": "U",
        "meta_norad_cat_id": 44333,
        "meta_element_set_no": 999,
        "meta_rev_at_epoch": 2374,
        "meta_bstar": 0,
        "meta_mean_motion_dot": -1.09e-06,
        "meta_mean_motion_ddot": 0,
        "tle_line1": "1 44333U 19034A   25344.97227778 -.00000109  00000+0  00000+0 0  9990",
        "tle_line2": "2 44333   0.0297  74.5044 0000510  72.1437 182.4372  1.00268632 23742"
      },
      "geometry": {
        "type": "Point",
        "coordinates": [
          -39.043414423367594,
          -0.02898420113409805
        ]
      }
    },
    {
      "type": "Feature",
      "properties": {
        "norad_id": 44476,
        "name": "INTELSAT 39 (IS-39)",
        "group": "intelsat",
        "lat": 0.018939727944717204,
        "lon": 123.77836450708624,
        "alt_km": 35782.56912209748,
        "timestamp": "2025-12-11T22:43:46.939931+00:00",
        "meta_object_name": "INTELSAT 39 (IS-39)",
        "meta_object_id": "2019-049B",
        "meta_epoch": "2025-12-11T12:05:38.207616",
        "meta_mean_motion": 1.00270898,
        "meta_eccentricity": 9.576e-05,
        "meta_inclination": 0.0198,
        "meta_ra_of_asc_node": 332.5138,
        "meta_arg_of_pericenter": 173.3627,
        "meta_mean_anomaly": 177.9389,
        "meta_ephemeris_type": 0,
        "meta_classification_type": "U",
        "meta_norad_cat_id": 44476,
        "meta_element_set_no": 999,
        "meta_rev_at_epoch": 2324,
        "meta_bstar": 0,
        "meta_mean_motion_dot": 4.1e-07,
        "meta_mean_motion_ddot": 0,
        "tle_line1": "1 44476U 19049B   25345.50391444  .00000041  00000+0  00000+0 0  9990",
        "tle_line2": "2 44476   0.0198 332.5138 0000957 173.3627 177.9389  1.00270898 23240"
      },
      "geometry": {
        "type": "Point",
        "coordinates": [
          123.77836450708624,
          0.018939727944717204
        ]
      }
    },
    {
      "type": "Feature",
      "properties": {
        "norad_id": 46114,
        "name": "GALAXY 30 (G-30)",
        "group": "intelsat",
        "lat": -0.021736648030654303,
        "lon": -63.14220327188319,
        "alt_km": 35778.03882101633,
        "timestamp": "2025-12-11T22:43:46.939943+00:00",
        "meta_object_name": "GALAXY 30 (G-30)",
        "meta_object_id": "2020-056C",
        "meta_epoch": "2025-12-11T14:37:46.138656",
        "meta_mean_motion": 1.00272524,
        "meta_eccentricity": 0.00022811,
        "meta_inclination": 0.0176,
        "meta_ra_of_asc_node": 333.1168,
        "meta_arg_of_pericenter": 287.8173,
        "meta_mean_anomaly": 274.0762,
        "meta_ephemeris_type": 0,
        "meta_classification_type": "U",
        "meta_norad_cat_id": 46114,
        "meta_element_set_no": 999,
        "meta_rev_at_epoch": 1941,
        "meta_bstar": 0,
        "meta_mean_motion_dot": 4.4e-07,
        "meta_mean_motion_ddot": 0,
        "tle_line1": "1 46114U 20056C   25345.60956179  .00000044  00000+0  00000+0 0  9997",
        "tle_line2": "2 46114   0.0176 333.1168 0002281 287.8173 274.0762  1.00272524 19412"
      },
      "geometry": {
        "type": "Point",
        "coordinates": [
          -63.14220327188319,
          -0.021736648030654303
        ]
      }
    },
    {
      "type": "Feature",
      "properties": {
        "norad_id": 54026,
        "name": "GALAXY 33 (G-33)",
        "group": "intelsat",
        "lat": -0.021429275705928987,
        "lon": -71.14460646444425,
        "alt_km": 35779.092135479594,
        "timestamp": "2025-12-11T22:43:46.939955+00:00",
        "meta_object_name": "GALAXY 33 (G-33)",
        "meta_object_id": "2022-128A",
        "meta_epoch": "2025-12-11T12:52:41.202336",
        "meta_mean_motion": 1.00271156,
        "meta_eccentricity": 0.00020313,
        "meta_inclination": 0.0136,
        "meta_ra_of_asc_node": 328.8724,
        "meta_arg_of_pericenter": 286.0132,
        "meta_mean_anomaly": 245.7839,
        "meta_ephemeris_type": 0,
        "meta_classification_type": "U",
        "meta_norad_cat_id": 54026,
        "meta_element_set_no": 999,
        "meta_rev_at_epoch": 1186,
        "meta_bstar": 0,
        "meta_mean_motion_dot": 8.6e-07,
        "meta_mean_motion_ddot": 0,
        "tle_line1": "1 54026U 22128A   25345.53658799  .00000086  00000+0  00000+0 0  9995",
        "tle_line2": "2 54026   0.0136 328.8724 0002031 286.0132 245.7839  1.00271156 11868"
      },
      "geometry": {
        "type": "Point",
        "coordinates": [
          -71.14460646444425,
          -0.021429275705928987
        ]
      }
    },
    {
      "type": "Feature",
      "properties": {
        "norad_id": 54027,
        "name": "GALAXY 34 (G-34)",
        "group": "intelsat",
        "lat": -0.029156889756972393,
        "lon": -67.08335999589173,
        "alt_km": 35782.10986804953,
        "timestamp": "2025-12-11T22:43:46.939967+00:00",
        "meta_object_name": "GALAXY 34 (G-34)",
        "meta_object_id": "2022-128B",
        "meta_epoch": "2025-12-11T14:36:38.746656",
        "meta_mean_motion": 1.00269872,
        "meta_eccentricity": 0.00013828,
        "meta_inclination": 0.0225,
        "meta_ra_of_asc_node": 339.5173,
        "meta_arg_of_pericenter": 273.4397,
        "meta_mean_anomaly": 277.839,
        "meta_ephemeris_type": 0,
        "meta_classification_type": "U",
        "meta_norad_cat_id": 54027,
        "meta_element_set_no": 999,
        "meta_rev_at_epoch": 1203,
        "meta_bstar": 0,
        "meta_mean_motion_dot": 0,
        "meta_mean_motion_ddot": 0,
        "tle_line1": "1 54027U 22128B   25345.60878179  .00000000  00000+0  00000+0 0  9996",
        "tle_line2": "2 54027   0.0225 339.5173 0001382 273.4397 277.8390  1.00269872 12036"
      },
      "geometry": {
        "type": "Point",
        "coordinates": [
          -67.08335999589173,
          -0.029156889756972393
        ]
      }
    },
    {
      "type": "Feature",
      "properties": {
        "norad_id": 54243,
        "name": "GALAXY 31 (G-31)",
        "group": "intelsat",
        "lat": -3.662644205529142e-05,
        "lon": -59.13686671793105,
        "alt_km": 35779.04857804173,
        "timestamp": "2025-12-11T22:43:46.939980+00:00",
        "meta_object_name": "GALAXY 31 (G-31)",
        "meta_object_id": "2022-153A",
        "meta_epoch": "2025-12-10T23:14:20.350176",
        "meta_mean_motion": 1.00272485,
        "meta_eccentricity": 0.00018393,
        "meta_inclination": 0.0145,
        "meta_ra_of_asc_node": 258.162,
        "meta_arg_of_pericenter": 13.4578,
        "meta_mean_anomaly": 35.9092,
        "meta_ephemeris_type": 0,
        "meta_classification_type": "U",
        "meta_norad_cat_id": 54243,
        "meta_element_set_no": 999,
        "meta_rev_at_epoch": 524,
        "meta_bstar": 0,
        "meta_mean_motion_dot": 1.8e-07,
        "meta_mean_motion_ddot": 0,
        "tle_line1": "1 54243U 22153A   25344.96829109  .00000018  00000+0  00000+0 0  9990",
        "tle_line2": "2 54243   0.0145 258.1620 0001839  13.4578  35.9092  1.00272485  5241"
      },
      "geometry": {
        "type": "Point",
        "coordinates": [
          -59.13686671793105,
          -3.662644205529142e-05
        ]
      }
    },
    {
      "type": "Feature",
      "properties": {
        "norad_id": 54244,
        "name": "GALAXY 32 (G-32)",
        "group": "intelsat",
        "lat": -0.004685067448838818,
        "lon": -29.163008526948076,
        "alt_km": 35777.028589742644,
        "timestamp": "2025-12-11T22:43:46.939992+00:00",
        "meta_object_name": "GALAXY 32 (G-32)",
        "meta_object_id": "2022-153B",
        "meta_epoch": "2025-12-10T11:23:53.431008",
        "meta_mean_motion": 1.00269631,
        "meta_eccentricity": 0.00024863,
        "meta_inclination": 0.0094,
        "meta_ra_of_asc_node": 343.9176,
        "meta_arg_of_pericenter": 325.4249,
        "meta_mean_anomaly": 210.0765,
        "meta_ephemeris_type": 0,
        "meta_classification_type": "U",
        "meta_norad_cat_id": 54244,
        "meta_element_set_no": 999,
        "meta_rev_at_epoch": 1125,
        "meta_bstar": 0,
        "meta_mean_motion_dot": -1.7e-06,
        "meta_mean_motion_ddot": 0,
        "tle_line1": "1 54244U 22153B   25344.47492397 -.00000170  00000+0  00000+0 0  9992",
        "tle_line2": "2 54244   0.0094 343.9176 0002486 325.4249 210.0765  1.00269631 11254"
      },
      "geometry": {
        "type": "Point",
        "coordinates": [
          -29.163008526948076,
          -0.004685067448838818
        ]
      }
    }
  ]
}